MESAT-1
1 60209U 24125G   26015.02632653  .00019673  00000-0  36705-3 0  9992
2 60209  97.2501 230.4755 0015642  63.5322 296.7531 15.48693269 85759
ISTSAT-1
1 60238U 24128D   26015.99579748  .00003517  00000-0  22760-3 0  9994
2 60238  61.9890  23.3424 0052841 101.3958 259.3079 15.09121591 83470
IONOSFERA-M 01
1 61735U 24199A   26015.93661185  .00000027  00000-0  31660-4 0  9999
2 61735  98.7385 250.5185 0000785 151.5513 208.5708 14.22722415106053
IONOSFERA-M 02
1 61736U 24199B   26015.97120487  .00000022  00000-0  29595-4 0  9998
2 61736  98.7383 250.4649 0001784  66.7389 293.3977 14.22724714109185
SITRO-AIS-16
1 61737U 24199C   26015.97396409  .00002126  00000-0  19132-3 0  9990
2 61737  97.3333 224.7601 0005899 211.6094 148.4775 14.96594467109045
SITRO-AIS-15
1 61738U 24199D   26015.96015775  .00001796  00000-0  16222-3 0  9993
2 61738  97.3328 224.7798 0005555 213.3254 146.7619 14.96620333109043
SITRO-AIS-21
1 61739U 24199E   26015.98742591  .00001625  00000-0  15527-3 0  9997
2 61739  97.3338 223.7262 0011993 209.7362 150.3180 14.94476617109015
SITRO-AIS-22
1 61740U 24199F   26015.95161385  .00001519  00000-0  14371-3 0  9990
2 61740  97.3344 223.7803 0011798 211.4981 148.5536 14.94963365109166
SITRO-AIS-24
1 61741U 24199G   26015.95744812  .00001771  00000-0  16632-3 0  9995
2 61741  97.3336 223.7798 0011735 213.4098 146.6385 14.95075395109139
SITRO-AIS-23
1 61742U 24199H   26015.94180883  .00001725  00000-0  16239-3 0  9999
2 61742  97.3346 223.7942 0011548 212.2558 147.7958 14.94993189109016
SITRO-AIS-13
1 61743U 24199J   26015.97477159  .00002328  00000-0  20762-3 0  9994
2 61743  97.3324 224.9035 0005470 212.3782 147.7106 14.96856410109210
CSTP-2.11
1 61744U 24199K   26015.97768319  .00015986  00000-0  36236-3 0  9993
2 61744  97.3230 249.5895 0011473 104.5989 255.6532 15.43100264110828
POLYTECH UNIVERSE-5 (RS70S)
1 61745U 24199L   26015.95354354  .00021392  00000-0  41716-3 0  9999
2 61745  97.3205 250.5299 0009070 105.2918 254.9336 15.47494215114038
COLIBRI-S (RS67S)
1 61746U 24199M   26015.93110374  .00013318  00000-0  32668-3 0  9995
2 61746  97.3239 248.9023 0011545 107.4251 252.8258 15.40762469113914
POLYTECH UNIVERSE-4 (RS71S)
1 61747U 24199N   26015.94847683  .00011680  00000-0  29868-3 0  9995
2 61747  97.3241 248.5779 0011983 106.5423 253.7140 15.39521944113895
SITRO-AIS-44
1 61748U 24199P   26015.94485057  .00027938  00000-0  49967-3 0  9994
2 61748  97.3183 251.1014 0008852 103.0911 257.1329 15.49928722114072
VIZARD-ION (RS68S)
1 61749U 24199Q   26015.97637510  .00018434  00000-0  39511-3 0  9996
2 61749  97.3234 250.0565 0010851 102.3661 257.8803 15.44739869113996
MTUSI-1
1 61750U 24199R   26015.96931981  .00019065  00000-0  41307-3 0  9993
2 61750  97.3200 249.5915 0010625 111.2158 249.0227 15.44416678113973
VLADIVOSTOK-1
1 61751U 24199S   26015.97556979  .00006549  00000-0  20349-3 0  9991
2 61751  97.3227 246.6320 0011487 125.4698 234.7618 15.33625539113784
SITRO-AIS-14
1 61752U 24199T   26015.94569751  .00001634  00000-0  14779-3 0  9991
2 61752  97.3333 224.7963 0005225 212.5304 147.5597 14.96678429112340
HORS-3 (RS81S)
1 61753U 24199U   26015.97700422  .00018456  00000-0  39771-3 0  9996
2 61753  97.3208 249.7275 0009801 110.3075 249.9228 15.44592064113982
HORS-4 (RS82S)
1 61754U 24199V   26015.93438391  .00020867  00000-0  41835-3 0  9999
2 61754  97.3188 250.2019 0009772 108.5743 251.6570 15.46686854114019
SITRO-AIS-43
1 61755U 24199W   26015.92235760  .00026336  00000-0  46814-3 0  9993
2 61755  97.3183 251.1299 0008591 101.5105 258.7111 15.50117721114070
SITRO-AIS-42
1 61756U 24199X   26015.97222709  .00028622  00000-0  50609-3 0  9995
2 61756  97.3188 251.2213 0008688 103.1295 257.0927 15.50250425114085
HORIZON (RS59S)
1 61757U 24199Y   26015.95909839  .00052110  00000-0  68155-3 0  9994
2 61757  97.3187 252.8699 0009217  89.9599 270.2713 15.58424756114186
SITRO-AIS-20
1 61758U 24199Z   26015.95396938  .00001554  00000-0  13990-3 0  9998
2 61758  97.3327 224.9184 0005041 216.3363 143.7519 14.96928990112353
SITRO-AIS-19
1 61759U 24199AA  26015.95502553  .00001675  00000-0  15055-3 0  9999
2 61759  97.3327 224.9192 0004977 218.2277 141.8593 14.96908657112354
SITRO-AIS-41
1 61760U 24199AB  26015.92504613  .00026417  00000-0  47793-3 0  9992
2 61760  97.3193 251.0022 0008606 102.4057 257.8158 15.49614989114069
NORBY-3
1 61761U 24199AC  26015.92009534  .00018938  00000-0  39330-3 0  9992
2 61761  97.3188 250.0725 0008824 106.1645 254.0576 15.45684982114002
ARCTICSAT-1 (RS74S)
1 61762U 24199AD  26015.93052795  .00043591  00000-0  61848-3 0  9993
2 61762  97.3198 252.6043 0009359  88.6436 271.5891 15.56271199114166
SIT-HSE
1 61763U 24199AE  26015.93020112  .00012506  00000-0  27091-3 0  9996
2 61763  97.3214 250.4104 0007354 122.3453 237.8508 15.44549470114020
SIT-2086
1 61764U 24199AF  26015.97671243  .00014023  00000-0  30214-3 0  9995
2 61764  97.3205 250.4880 0009344  99.6748 260.5556 15.44662301110870
MORDOVIA-IOT (RS50S)
1 61765U 24199AG  26015.92734197  .00264752  00000-0  10907-2 0  9991
2 61765  97.3023 256.4044 0007458  81.1488 279.0627 15.85224496111271
RUZAEVKA-390 (RS44S)
1 61766U 24199AH  26015.94509666  .00105138  00000-0  86658-3 0  9994
2 61766  97.3121 254.8902 0007827  81.2861 278.9288 15.69998913111176
HOD-HOD
1 61768U 24199AK  26015.94633597  .00013708  00000-0  31800-3 0  9997
2 61768  97.3209 249.5013 0007952 113.4985 246.7099 15.42479131110813
KOSAR
1 61769U 24199AL  26015.97353551  .00017205  00000-0  37323-3 0  9992
2 61769  97.3204 250.0454 0007691 111.6808 248.5261 15.44429475110852
SITRO-AIS-48
1 61771U 24199AN  26015.97319226  .00021577  00000-0  45109-3 0  9994
2 61771  97.3174 249.4320 0010996 118.6499 241.5857 15.45440315110828
HYPERVIEW-1G (RS66S)
1 61772U 24199AP  26015.97088416  .00032041  00000-0  54855-3 0  9995
2 61772  97.3181 250.9105 0011469 107.5687 252.6819 15.51110460110910
SITRO-AIS-47
1 61773U 24199AQ  26015.93328747  .00021055  00000-0  43522-3 0  9998
2 61773  97.3177 249.4956 0010908 119.1738 241.0604 15.45779594110822
SITRO-AIS-46
1 61774U 24199AR  26015.97412928  .00023217  00000-0  46748-3 0  9993
2 61774  97.3169 249.7202 0010879 118.7376 241.4969 15.46527734110849
CSTP-2.2
1 61775U 24199AS  26015.96687608  .00010366  00000-0  26852-3 0  9997
2 61775  97.3225 247.9975 0018334 107.4249 252.9003 15.39056526110718
SITRO-AIS-40
1 61776U 24199AT  26015.97080926  .00023342  00000-0  46830-3 0  9995
2 61776  97.3169 249.7283 0010928 118.6826 241.5524 15.46630964113991
CSTP-2.1
1 61777U 24199AU  26015.94845860  .00010033  00000-0  25668-3 0  9998
2 61777  97.3225 248.0147 0017436 108.3056 252.0089 15.39463363110717
SITRO-AIS-39
1 61778U 24199AV  26015.94773468  .00020740  00000-0  43608-3 0  9993
2 61778  97.3174 249.3165 0011191 119.7616 240.4748 15.45278225110817
ALTAIR (RS65S)
1 61779U 24199AW  26015.93986279  .00008195  00000-0  25407-3 0  9996
2 61779  97.3248 246.4200 0015191 127.5387 232.7238 15.33563339113758
SITRO-AIS-37
1 61780U 24199AX  26015.96326721  .00021819  00000-0  45073-3 0  9990
2 61780  97.3183 249.4952 0011309 120.0139 240.2234 15.45784763110829
ASRTU-1 (RS64S/BJ2CR/AO-123)
1 61781U 24199AY  26015.95570459  .00006245  00000-0  19909-3 0  9994
2 61781  97.3229 246.0459 0015593 128.7929 231.4708 15.32767949110581
TUSUR GO (RS78S)
1 61782U 24199AZ  26015.97184986  .00052479  00000-0  69686-3 0  9990
2 61782  97.3143 251.9262 0010272 101.7240 258.5169 15.58005637110982
ZIMSAT-2 (Z2AS)
1 61783U 24199BA  26009.19142266  .00678273  19479-3  17950-2 0  9998
2 61783  97.2964 248.8590 0008008 103.0885 257.1284 15.94647359113345
SAMSAT-IONOSPHERE (RS75S)
1 61784U 24199BB  26015.96619483  .00020213  00000-0  42599-3 0  9991
2 61784  97.3202 249.4466 0012734 114.5754 245.6824 15.45194166113963
RTU MIREA-1 (RS51S)
1 61785U 24199BC  26015.95530413  .00023835  00000-0  47867-3 0  9992
2 61785  97.3196 249.7530 0012438 112.0637 248.1935 15.46578919110832
SITRO-AIS-38
1 61786U 24199BD  26015.97775524  .00011446  00000-0  26596-3 0  9990
2 61786  97.3187 249.1586 0012265 123.5060 236.7362 15.42429755110806
2024-199BE (? SWSU-60)
1 61787U 24199BE  26015.97096690  .00006487  00000-0  20375-3 0  9999
2 61787  97.3236 246.2060 0015482 128.2517 232.0121 15.33232743113747
SITRO-AIS-45
1 61788U 24199BF  26015.92244824  .00020152  00000-0  42130-3 0  9997
2 61788  97.3172 249.3252 0011128 119.8235 240.4122 15.45452558110797
SITRO-AIS-17
1 61789U 24199BG  26015.94629942  .00001709  00000-0  15335-3 0  9992
2 61789  97.3335 224.9515 0004895 221.7571 138.3279 14.96941272109257
SITRO-AIS-18
1 61790U 24199BH  26015.95532976  .00001584  00000-0  14259-3 0  9990
2 61790  97.3327 224.9217 0004988 220.2953 139.7900 14.96897957109256
INNOCUBE (TUBSAT-31)
1 62616U 25009H   26015.75645799  .00004891  00000-0  20589-3 0  9992
2 62616  97.4050  97.5428 0007073 141.2530 218.9216 15.23813281 55582
HADES-R (SO-124)
1 62690U 25009CK  26015.17815421  .00247000  00000-0  15370-2 0  9993
2 62690  97.3781 104.4554 0004808 295.2559  64.8208 15.76242232 56014
OTP-2
1 63235U 25052AB  26015.64800140  .00002111  00000-0  96915-4 0  9999
2 63235  97.4057 270.4419 0006337 355.3694   4.7482 15.21494158 46650
HADES-ICM (SO-125)
1 63492U 25052BN  26015.70388617  .00044488  00000-0  95873-3 0  9995
2 63492  97.4058 274.7224 0006585 341.6960  18.4050 15.44440682 46938
IONOSFERA-M 03
1 64876U 25155A   26015.92292037  .00000044  00000-0  39573-4 0  9996
2 64876  98.5829 341.8298 0000754 358.6237   1.4938 14.21450746 24778
IONOSFERA-M 04
1 64877U 25155B   26015.95795927  .00000048  00000-0  41548-4 0  9995
2 64877  98.5828 341.7830 0000560  55.5588 304.5643 14.21452101 24773
INNOSAT16 (RS92S7)
1 64878U 25155C   26015.91717086  .00004738  00000-0  20289-3 0  9990
2 64878  97.4371 343.9431 0011330  12.8275 347.3248 15.23220079 57471
